ONEWEB-0369             
1 49295U 21090S   23283.64337148 -.00000206  00000+0 -54736-3 0  9992
2 49295  87.9209 140.1340 0001854  79.0587 281.0754 13.19725390 97084
ONEWEB-0370             
1 49296U 21090T   23283.87913295  .00000033  00000+0  49763-4 0  9992
2 49296  87.9141 109.6144 0001634  88.8721 271.2600 13.20770896100467
ONEWEB-0371             
1 49297U 21090U   23283.65129538  .00000358  00000+0  86151-3 0  9999
2 49297  87.9210 140.1214 0001615  77.0854 283.0459 13.19725692 97122
ONEWEB-0372             
1 49298U 21090V   23283.79286075  .00000105  00000+0  22521-3 0  9996
2 49298  87.9151 109.6305 0001796  73.3055 286.8275 13.20773097100429
ONEWEB-0373             
1 49299U 21090W   23283.89596344 -.00000045  00000+0 -14379-3 0  9998
2 49299  87.9217 109.5818 0002019  94.2138 265.9226 13.20773318101627
ONEWEB-0374             
1 49300U 21090X   23283.79805305  .00000134  00000+0  32619-3 0  9994
2 49300  87.8953 124.8716 0001796  84.1437 275.9897 13.14501926 98766
ONEWEB-0375             
1 49301U 21090Y   23283.88333383  .00000062  00000+0  11976-3 0  9990
2 49301  87.9138 109.6153 0001767 112.9750 247.1570 13.20771756101126
ONEWEB-0376             
1 49302U 21090Z   23283.64970574  .00000114  00000+0  25308-3 0  9996
2 49302  87.9213 140.1392 0001940  72.5098 287.6246 13.19727085 97122
